STARLINK-1952_new
1 17349C 21005A   21326.14157674  .00486667  00000-0  29873-2 0  3266
2 17349  53.0534 230.3959 0000666 281.6849 206.7329 15.76090740    15
STARLINK-1952_old
1 27349C 21005A   21325.12363512  .01230162  00000-0  82122-2 0  3256
2 27349  53.0535 235.4634 0003871 320.2873 154.2651 15.73430031    13
